SKYSAT-C4               
1 41771U 16058B   26162.58085238  .00014882  00000+0  28218-3 0  9992
2 41771  96.9177 184.5882 0000957 116.6405 243.4945 15.48411611544603
SKYSAT-C5               
1 41772U 16058C   26162.69123456  .00007020  00000+0  21302-3 0  9993
2 41772  97.0478 203.5767 0001617 351.6137   8.5079 15.34391815542908
SKYSAT-C2               
1 41773U 16058D   26162.61368267  .00011321  00000+0  26782-3 0  9993
2 41773  97.0174 184.9185 0005030  82.8740 277.3080 15.41943736544198
SKYSAT-C3               
1 41774U 16058E   26162.53550163  .00020600  00000+0  33990-3 0  9992
2 41774  96.9012 193.6007 0001751  86.2844 273.8610 15.52297681545236
SKYSAT-C11              
1 42987U 17068A   26162.40438802  .00022701  00000+0  30874-3 0  9994
2 42987  97.4337 310.9856 0000881  86.6120 273.5236 15.57594006482348
SKYSAT-C10              
1 42988U 17068B   26162.35860817  .00007458  00000+0  22533-3 0  9999
2 42988  97.4490 299.1499 0001169  92.3296 267.8081 15.34538193481464
SKYSAT-C9               
1 42989U 17068C   26162.65633705  .00012606  00000+0  30298-3 0  9995
2 42989  97.4411 300.3327 0009162 150.5736 209.6029 15.41424602481902
SKYSAT-C8               
1 42990U 17068D   26162.33879073  .00008965  00000+0  25109-3 0  9990
2 42990  97.4508 298.9075 0001524  97.0045 263.1372 15.36860099481415
SKYSAT-C7               
1 42991U 17068E   26162.65777490  .00010227  00000+0  28624-3 0  9995
2 42991  97.4520 300.2198 0007126 122.5745 237.6188 15.36816791481521
SKYSAT-C6               
1 42992U 17068F   26162.34180288  .00008016  00000+0  24524-3 0  9993
2 42992  97.4555 299.8907 0004143 152.7349 207.4112 15.34108684481426
